0 FENGYUN 1C DEB
1 38829U 99025EVV 13280.25529288  .00000944  00000-0  63429-3 0   399
2 38829 099.1393 288.3667 0043767 205.5645 215.3460 14.02781944136360
0 FENGYUN 1C DEB
1 38829U 99025EVV 13290.82391294  .00000730  00000-0  49670-3 0   415
2 38829 099.1407 298.9763 0044184 175.7045 308.1556 14.02808091137840
